{"type": "FeatureCollection", "features": [ {"type": "Feature", "properties": {"norad_id": 34685, "name": "COSMOS 2251 DEB", "group": "cosmos-2251-debris", "lat": -65.26964876321401, "lon": 88.15405379380512, "alt_km": 702.3940852790838, "timestamp": "2025-12-24T09:46:31.399920+00:00", "meta": {"OBJECT_NAME": "COSMOS 2251 DEB", "OBJECT_ID": "1993-036YF", "EPOCH": "2025-12-24T02:40:25.828320", "MEAN_MOTION": 14.57603922, "ECCENTRICITY": 0.0014208, "INCLINATION": 74.0299, "RA_OF_ASC_NODE": 127.1601, "ARG_OF_PERICENTER": 232.1356, "MEAN_ANOMALY": 304.844, "EPHEMERIS_TYPE": 0, "CLASSIFICATION_TYPE": "U", "NORAD_CAT_ID": 34685, "ELEMENT_SET_NO": 999, "REV_AT_EPOCH": 88697, "BSTAR": 0.0011247, "MEAN_MOTION_DOT": 5.105e-05, "MEAN_MOTION_DDOT": 0}, "tle": {"line1": "1 34685U 93036YF  25358.11141005  .00005105  00000+0  11247-2 0  9990", "line2": "2 34685  74.0299 127.1601 0014208 232.1356 304.8440 14.57603922886974"}}, "geometry": {"type": "Point", "coordinates": [88.15405379380512, -65.26964876321401]}}, {"type": "Feature", "properties": {"norad_id": 34689, "name": "COSMOS 2251 DEB", "group": "cosmos-2251-debris", "lat": 61.6644873323062, "lon": -124.96155066345692, "alt_km": 1023.0642539765122, "timestamp": "2025-12-24T09:46:31.399930+00:00", "meta": {"OBJECT_NAME": "COSMOS 2251 DEB", "OBJECT_ID": "1993-036YK", "EPOCH": "2025-12-15T15:20:16.539648", "MEAN_MOTION": 14.04491905, "ECCENTRICITY": 0.02275051, "INCLINATION": 74.0901, "RA_OF_ASC_NODE": 218.3502, "ARG_OF_PERICENTER": 286.6099, "MEAN_ANOMALY": 101.262, "EPHEMERIS_TYPE": 0, "CLASSIFICATION_TYPE": "U", "NORAD_CAT_ID": 34689, "ELEMENT_SET_NO": 999, "REV_AT_EPOCH": 84382, "BSTAR": 0.0020174062, "MEAN_MOTION_DOT": 4.031e-05, "MEAN_MOTION_DDOT": 0}, "tle": {"line1": "1 34689U 93036YK  25349.63908032  .00004031  00000+0  20174-2 0  9998", "line2": "2 34689  74.0901 218.3502 0227505 286.6099 101.2620 14.04491905843829"}}, "geometry": {"type": "Point", "coordinates": [-124.96155066345692, 61.6644873323062]}}, {"type": "Feature", "properties": {"norad_id": 34721, "name": "COSMOS 2251 DEB", "group": "cosmos-2251-debris", "lat": 44.832421810969485, "lon": 109.3436155781734, "alt_km": 952.83565993921, "timestamp": "2025-12-24T09:46:31.399941+00:00", "meta": {"OBJECT_NAME": "COSMOS 2251 DEB", "OBJECT_ID": "1993-036YP", "EPOCH": "2025-12-23T08:06:44.057088", "MEAN_MOTION": 13.96892284, "ECCENTRICITY": 0.0222857, "INCLINATION": 73.9221, "RA_OF_ASC_NODE": 307.8595, "ARG_OF_PERICENTER": 244.8639, "MEAN_ANOMALY": 275.037, "EPHEMERIS_TYPE": 0, "CLASSIFICATION_TYPE": "U", "NORAD_CAT_ID": 34721, "ELEMENT_SET_NO": 999, "REV_AT_EPOCH": 85297, "BSTAR": 0.00099969, "MEAN_MOTION_DOT": 1.69e-05, "MEAN_MOTION_DDOT": 0}, "tle": {"line1": "1 34721U 93036YP  25357.33800992  .00001690  00000+0  99969-3 0  9994", "line2": "2 34721  73.9221 307.8595 0222857 244.8639 275.0370 13.96892284852979"}}, "geometry": {"type": "Point", "coordinates": [109.3436155781734, 44.832421810969485]}}, {"type": "Feature", "properties": {"norad_id": 34722, "name": "COSMOS 2251 DEB", "group": "cosmos-2251-debris", "lat": -73.22556647561798, "lon": -118.4459013899181, "alt_km": 761.3578754863775, "timestamp": "2025-12-24T09:46:31.399951+00:00", "meta": {"OBJECT_NAME": "COSMOS 2251 DEB", "OBJECT_ID": "1993-036YQ", "EPOCH": "2025-12-24T03:27:06.651072", "MEAN_MOTION": 14.11966328, "ECCENTRICITY": 0.016652, "INCLINATION": 73.8735, "RA_OF_ASC_NODE": 315.7266, "ARG_OF_PERICENTER": 239.2863, "MEAN_ANOMALY": 135.4881, "EPHEMERIS_TYPE": 0, "CLASSIFICATION_TYPE": "U", "NORAD_CAT_ID": 34722, "ELEMENT_SET_NO": 999, "REV_AT_EPOCH": 86406, "BSTAR": 0.00062987, "MEAN_MOTION_DOT": 1.286e-05, "MEAN_MOTION_DDOT": 0}, "tle": {"line1": "1 34722U 93036YQ  25358.14382698  .00001286  00000+0  62987-3 0  9994", "line2": "2 34722  73.8735 315.7266 0166520 239.2863 135.4881 14.11966328864061"}}, "geometry": {"type": "Point", "coordinates": [-118.4459013899181, -73.22556647561798]}}, {"type": "Feature", "properties": {"norad_id": 34726, "name": "COSMOS 2251 DEB", "group": "cosmos-2251-debris", "lat": 40.7456250280174, "lon": 129.7809918177534, "alt_km": 664.6015782662371, "timestamp": "2025-12-24T09:46:31.399964+00:00", "meta": {"OBJECT_NAME": "COSMOS 2251 DEB", "OBJECT_ID": "1993-036YU", "EPOCH": "2025-12-24T04:13:01.255008", "MEAN_MOTION": 14.59524729, "ECCENTRICITY": 0.0041712, "INCLINATION": 74.0282, "RA_OF_ASC_NODE": 324.5074, "ARG_OF_PERICENTER": 111.625, "MEAN_ANOMALY": 248.9367, "EPHEMERIS_TYPE": 0, "CLASSIFICATION_TYPE": "U", "NORAD_CAT_ID": 34726, "ELEMENT_SET_NO": 999, "REV_AT_EPOCH": 88669, "BSTAR": 0.00041571, "MEAN_MOTION_DOT": 1.969e-05, "MEAN_MOTION_DDOT": 0}, "tle": {"line1": "1 34726U 93036YU  25358.17570897  .00001969  00000+0  41571-3 0  9995", "line2": "2 34726  74.0282 324.5074 0041712 111.6250 248.9367 14.59524729886697"}}, "geometry": {"type": "Point", "coordinates": [129.7809918177534, 40.7456250280174]}}, {"type": "Feature", "properties": {"norad_id": 34728, "name": "COSMOS 2251 DEB", "group": "cosmos-2251-debris", "lat": 44.20537119048301, "lon": 32.90500309174405, "alt_km": 663.7871476221162, "timestamp": "2025-12-24T09:46:31.399975+00:00", "meta": {"OBJECT_NAME": "COSMOS 2251 DEB", "OBJECT_ID": "1993-036YW", "EPOCH": "2025-12-20T02:20:18.568032", "MEAN_MOTION": 14.70905998, "ECCENTRICITY": 0.00414013, "INCLINATION": 74.0163, "RA_OF_ASC_NODE": 237.4676, "ARG_OF_PERICENTER": 33.08, "MEAN_ANOMALY": 327.2947, "EPHEMERIS_TYPE": 0, "CLASSIFICATION_TYPE": "U", "NORAD_CAT_ID": 34728, "ELEMENT_SET_NO": 999, "REV_AT_EPOCH": 88908, "BSTAR": 0.00043281985, "MEAN_MOTION_DOT": 2.653e-05, "MEAN_MOTION_DDOT": 0}, "tle": {"line1": "1 34728U 93036YW  25354.09743713  .00002653  00000+0  43282-3 0  9995", "line2": "2 34728  74.0163 237.4676 0041401  33.0800 327.2947 14.70905998889085"}}, "geometry": {"type": "Point", "coordinates": [32.90500309174405, 44.20537119048301]}}, {"type": "Feature", "properties": {"norad_id": 34729, "name": "COSMOS 2251 DEB", "group": "cosmos-2251-debris", "lat": -62.53276931245796, "lon": -58.14254795525398, "alt_km": 633.9663104643405, "timestamp": "2025-12-24T09:46:31.399985+00:00", "meta": {"OBJECT_NAME": "COSMOS 2251 DEB", "OBJECT_ID": "1993-036YX", "EPOCH": "2025-12-24T02:32:11.831136", "MEAN_MOTION": 14.83107337, "ECCENTRICITY": 0.0012026, "INCLINATION": 74.0186, "RA_OF_ASC_NODE": 335.911, "ARG_OF_PERICENTER": 88.4118, "MEAN_ANOMALY": 34.6176, "EPHEMERIS_TYPE": 0, "CLASSIFICATION_TYPE": "U", "NORAD_CAT_ID": 34729, "ELEMENT_SET_NO": 999, "REV_AT_EPOCH": 88626, "BSTAR": 0.0019748, "MEAN_MOTION_DOT": 0.00016117, "MEAN_MOTION_DDOT": 0}, "tle": {"line1": "1 34729U 93036YX  25358.10569249  .00016117  00000+0  19748-2 0  9991", "line2": "2 34729  74.0186 335.9110 0012026  88.4118  34.6176 14.83107337886260"}}, "geometry": {"type": "Point", "coordinates": [-58.14254795525398, -62.53276931245796]}}, {"type": "Feature", "properties": {"norad_id": 34732, "name": "COSMOS 2251 DEB", "group": "cosmos-2251-debris", "lat": 69.94862672231534, "lon": -160.22327303278672, "alt_km": 740.5687780770859, "timestamp": "2025-12-24T09:46:31.399995+00:00", "meta": {"OBJECT_NAME": "COSMOS 2251 DEB", "OBJECT_ID": "1993-036ZA", "EPOCH": "2025-12-22T16:32:23.959680", "MEAN_MOTION": 14.47311087, "ECCENTRICITY": 0.00401751, "INCLINATION": 74.0456, "RA_OF_ASC_NODE": 74.5946, "ARG_OF_PERICENTER": 223.757, "MEAN_ANOMALY": 290.4905, "EPHEMERIS_TYPE": 0, "CLASSIFICATION_TYPE": "U", "NORAD_CAT_ID": 34732, "ELEMENT_SET_NO": 999, "REV_AT_EPOCH": 88287, "BSTAR": 0.00012395205, "MEAN_MOTION_DOT": 4.3e-06, "MEAN_MOTION_DDOT": 0}, "tle": {"line1": "1 34732U 93036ZA  25356.68916620  .00000430  00000+0  12395-3 0  9998", "line2": "2 34732  74.0456  74.5946 0040175 223.7570 290.4905 14.47311087882873"}}, "geometry": {"type": "Point", "coordinates": [-160.22327303278672, 69.94862672231534]}}, {"type": "Feature", "properties": {"norad_id": 34736, "name": "COSMOS 2251 DEB", "group": "cosmos-2251-debris", "lat": -28.026051173409513, "lon": 1.680709802927413, "alt_km": 389.530943277593, "timestamp": "2025-12-24T09:46:31.400006+00:00", "meta": {"OBJECT_NAME": "COSMOS 2251 DEB", "OBJECT_ID": "1993-036ZE", "EPOCH": "2025-12-24T02:11:47.071392", "MEAN_MOTION": 15.58131671, "ECCENTRICITY": 0.0011776, "INCLINATION": 73.9978, "RA_OF_ASC_NODE": 11.1707, "ARG_OF_PERICENTER": 338.3861, "MEAN_ANOMALY": 21.6858, "EPHEMERIS_TYPE": 0, "CLASSIFICATION_TYPE": "U", "NORAD_CAT_ID": 34736, "ELEMENT_SET_NO": 999, "REV_AT_EPOCH": 88624, "BSTAR": 0.0082484, "MEAN_MOTION_DOT": 0.00677638, "MEAN_MOTION_DDOT": 0}, "tle": {"line1": "1 34736U 93036ZE  25358.09151703  .00677638  00000+0  82484-2 0  9997", "line2": "2 34736  73.9978  11.1707 0011776 338.3861  21.6858 15.58131671886245"}}, "geometry": {"type": "Point", "coordinates": [1.680709802927413, -28.026051173409513]}}, {"type": "Feature", "properties": {"norad_id": 34738, "name": "COSMOS 2251 DEB", "group": "cosmos-2251-debris", "lat": 73.67617878347436, "lon": -136.69746199525736, "alt_km": 763.8054338228849, "timestamp": "2025-12-24T09:46:31.400016+00:00", "meta": {"OBJECT_NAME": "COSMOS 2251 DEB", "OBJECT_ID": "1993-036ZG", "EPOCH": "2025-12-23T18:44:43.283328", "MEAN_MOTION": 14.4632643, "ECCENTRICITY": 0.00475663, "INCLINATION": 74.0156, "RA_OF_ASC_NODE": 122.6297, "ARG_OF_PERICENTER": 266.8783, "MEAN_ANOMALY": 167.0667, "EPHEMERIS_TYPE": 0, "CLASSIFICATION_TYPE": "U", "NORAD_CAT_ID": 34738, "ELEMENT_SET_NO": 999, "REV_AT_EPOCH": 88018, "BSTAR": 0.00030074639, "MEAN_MOTION_DOT": 1.066e-05, "MEAN_MOTION_DDOT": 0}, "tle": {"line1": "1 34738U 93036ZG  25357.78105652  .00001066  00000+0  30075-3 0  9992", "line2": "2 34738  74.0156 122.6297 0047566 266.8783 167.0667 14.46326430880188"}}, "geometry": {"type": "Point", "coordinates": [-136.69746199525736, 73.67617878347436]}}]}